{
  "norad_id": 59941,
  "name": "STARLINK-31948",
  "history": [
    {
      "epoch": "2026-03-28T17:54:24.514848",
      "apogee_km": 483.48584450532144,
      "perigee_km": 482.5660370014839,
      "latitude_deg": -42.55114095823553,
      "longitude_deg": -114.27276127994992,
      "semi_major_axis_km": 6861.162940753402,
      "eccentricity": 6.703e-05,
      "inclination_deg": 43.0012,
      "raan_deg": 221.6491,
      "arg_perigee_deg": 305.0165,
      "mean_anomaly_deg": 55.0623,
      "mean_motion_rev_day": 15.27587733
    }
  ]
}