{"fetched_at":"2026-03-29T16:36:15Z","count":15609,"tles":[{"name":"STARLINK-31948","line1":"1 59941U 24106V   26087.74611707  .00003311  00000+0  12976-3 0  9992","line2":"2 59941  43.0012 221.6491 0000670 305.0165  55.0623 15.27587733103472","category":"Starlink"}]}